ORBCOMM FM115           
1 41186U 15081H   24119.52891115  .00001612  00000+0  36331-3 0  9992
2 41186  46.9972 208.8737 0001506 288.8113  71.2610 14.60628129447110
ORBCOMM FM108           
1 41187U 15081J   24119.13042515  .00002675  00000+0  63239-3 0  9999
2 41187  47.0035 264.6761 0003187 214.5238 145.5441 14.56536115446250
ORBCOMM FM117           
1 41188U 15081K   24119.64494081  .00002070  00000+0  49767-3 0  9994
2 41188  46.9994 261.1489 0003747 224.3175 135.7410 14.56541968446375
ORBCOMM FM116           
1 41189U 15081L   24119.90864470  .00001931  00000+0  46697-3 0  9991
2 41189  47.0019 349.7266 0002329 308.3181  51.7494 14.56541322445290
